IRIDIUM 26              
1 24903U 97043A   25102.38773456  .00000747  00000+0  24513-3 0  9999
2 24903  86.3953 138.2677 0002151  89.3335 270.8108 14.37077578447299
IRIDIUM 22              
1 24907U 97043E   25102.54213354  .00000612  00000+0  20454-3 0  9998
2 24907  86.3962 141.6830 0002286  93.4209 266.7249 14.35900162447356
DUMMY MASS 1            
1 24925U 97048A   25102.19797380  .00000850  00000+0  91943-4 0  9996
2 24925  86.3392 165.8302 0007805  37.7206 322.4564 14.86921027495324
DUMMY MASS 2            
1 24926U 97048B   25102.41838407  .00000850  00000+0  92491-4 0  9997
2 24926  86.3395 167.3218 0008921  45.0975 315.0972 14.86674219495134
IRIDIUM 29              
1 24944U 97051A   25102.44881923  .00000822  00000+0  27401-3 0  9992
2 24944  86.4015 171.4547 0002436  97.7446 262.4028 14.36401261443834
IRIDIUM 33              
1 24946U 97051C   25102.42863995  .00000537  00000+0  18238-3 0  9992
2 24946  86.3928 170.7183 0005739 300.6014  59.4616 14.34847043443312
IRIDIUM 28              
1 24948U 97051E   25102.46478017  .00000747  00000+0  24400-3 0  9996
2 24948  86.4016 169.0041 0001875  88.6104 271.5308 14.37329212444409
IRIDIUM 36              
1 24967U 97056C   25102.50778766  .00000912  00000+0  29807-3 0  9991
2 24967  86.4033 200.5559 0002001 100.2202 259.9222 14.37543129442785
